[{"OBJECT_NAME":"THEA","OBJECT_ID":"2018-099AQ","EPOCH":"2026-03-09T22:33:02.658240","MEAN_MOTION":15.31454284,"ECCENTRICITY":0.00065849,"INCLINATION":97.4542,"RA_OF_ASC_NODE":137.8815,"ARG_OF_PERICENTER":275.4664,"MEAN_ANOMALY":84.5826,"EPHEMERIS_TYPE":0,"CLASSIFICATION_TYPE":"U","NORAD_CAT_ID":43796,"ELEMENT_SET_NO":999,"REV_AT_EPOCH":39748,"BSTAR":0.00074635274,"MEAN_MOTION_DOT":0.00022649,"MEAN_MOTION_DDOT":0},{"OBJECT_NAME":"STARLINK-30927","OBJECT_ID":"2023-178J","EPOCH":"2026-03-09T01:49:18.808032","MEAN_MOTION":15.30189297,"ECCENTRICITY":0.00011698,"INCLINATION":53.1617,"RA_OF_ASC_NODE":4.1926,"ARG_OF_PERICENTER":85.5281,"MEAN_ANOMALY":274.5853,"EPHEMERIS_TYPE":0,"CLASSIFICATION_TYPE":"U","NORAD_CAT_ID":58382,"ELEMENT_SET_NO":999,"REV_AT_EPOCH":12977,"BSTAR":-1.3388147e-5,"MEAN_MOTION_DOT":-7.55e-6,"MEAN_MOTION_DDOT":0}]
